DELTA 2 R/B(1)          
1 20453U 90008B   25361.15319750  .00053674  00000+0  82579-3 0  9997
2 20453  35.6070 287.3768 0109319 309.0505  50.0541 15.46448073914868
COSMOS 2058             
1 20465U 90010A   25360.80154846  .00005237  00000+0  31505-3 0  9992
2 20465  82.4707 119.2001 0009629 219.9612 140.0910 15.10609202931236
SL-14 R/B               
1 20466U 90010B   25361.17994502  .00000590  00000+0  68655-4 0  9999
2 20466  82.5024 335.4842 0019889 174.2387 185.9061 14.83485144917736
SL-14 R/B               
1 20511U 90018B   25361.26301008  .00000613  00000+0  74151-4 0  9995
2 20511  82.5220 290.7911 0015752 335.6016  24.4451 14.82062027911859
HST                     
1 20580U 90037B   25361.15970732  .00007191  00000+0  24604-3 0  9991
2 20580  28.4655 174.3242 0002522  42.5437 317.5354 15.28229286762206
SL-16 R/B               
1 20625U 90046B   25361.23786818 -.00000044  00000+0  19599-5 0  9990
2 20625  70.9992  90.0750 0012356  48.4281 311.7899 14.14997386838142
COSMOS 2084             
1 20663U 90055A   25361.05207085  .00003148  00000+0  23232-3 0  9990
2 20663  62.7887 223.2232 0029410 176.6113 183.5192 15.05103000925385
SL-6 R/B(2)             
1 20666U 90055D   25361.13712981  .00003145  00000+0  24575-3 0  9996
2 20666  62.7828 140.4930 0014431 318.6332  41.3673 15.03144078927280
SL-8 R/B                
1 20775U 90078B   25361.27372487  .00015794  00000+0  48708-3 0  9997
2 20775  82.9057 316.2959 0369875 256.9475  99.0219 14.86447863798538
SL-8 R/B                
1 21088U 91006B   25361.14357156  .00000101  00000+0  86462-4 0  9995
2 21088  82.9412 223.9989 0021338 237.0301 237.0226 13.77492816754086
OKEAN-3                 
1 21397U 91039A   25361.18440147  .00003157  00000+0  22497-3 0  9992
2 21397  82.5161  47.0647 0013649 210.7043 149.3386 15.04207121854133
COSMOS 2151             
1 21422U 91042A   25361.23513901  .00002888  00000+0  23152-3 0  9999
2 21422  82.4967 153.5337 0011469 308.4049  51.6144 14.99743054852333
